SENTINEL-6              
1 46984U 20086A   24105.91206846 -.00000041  00000+0  88131-4 0  9995
2 46984  66.0438 342.6945 0007789 271.2585  88.7537 12.80929831158728
